{
  "type": "FeatureCollection",
  "features": [
    {
      "type": "Feature",
      "properties": {
        "norad_id": 37530,
        "name": "COSMOS 2251 DEB",
        "group": "cosmos-2251-debris",
        "lat": 26.19108327424105,
        "lon": 160.35172828445508,
        "alt_km": 778.315517887765,
        "timestamp": "2025-12-04T15:47:54.496999+00:00",
        "meta_object_name": "COSMOS 2251 DEB",
        "meta_object_id": "1993-036BNK",
        "meta_epoch": "2025-11-30T19:50:14.646624",
        "meta_mean_motion": 14.34478642,
        "meta_eccentricity": 0.00255427,
        "meta_inclination": 74.0356,
        "meta_ra_of_asc_node": 355.4602,
        "meta_arg_of_pericenter": 61.4891,
        "meta_mean_anomaly": 111.2815,
        "meta_ephemeris_type": 0,
        "meta_classification_type": "U",
        "meta_norad_cat_id": 37530,
        "meta_element_set_no": 999,
        "meta_rev_at_epoch": 85061,
        "meta_bstar": 0.00021143929,
        "meta_mean_motion_dot": 5.72e-06,
        "meta_mean_motion_ddot": 0,
        "tle_line1": "1 37530U 93036BNK 25334.82655841  .00000572  00000+0  21144-3 0  9993",
        "tle_line2": "2 37530  74.0356 355.4602 0025542  61.4891 111.2815 14.34478642850619"
      },
      "geometry": {
        "type": "Point",
        "coordinates": [
          160.35172828445508,
          26.19108327424105
        ]
      }
    },
    {
      "type": "Feature",
      "properties": {
        "norad_id": 37532,
        "name": "COSMOS 2251 DEB",
        "group": "cosmos-2251-debris",
        "lat": 58.87939660219931,
        "lon": -101.02893078731215,
        "alt_km": 744.7140355169577,
        "timestamp": "2025-12-04T15:47:54.497009+00:00",
        "meta_object_name": "COSMOS 2251 DEB",
        "meta_object_id": "1993-036BNM",
        "meta_epoch": "2025-12-02T23:37:55.500096",
        "meta_mean_motion": 14.4238225,
        "meta_eccentricity": 0.00156756,
        "meta_inclination": 74.0505,
        "meta_ra_of_asc_node": 233.7976,
        "meta_arg_of_pericenter": 335.7247,
        "meta_mean_anomaly": 40.2834,
        "meta_ephemeris_type": 0,
        "meta_classification_type": "U",
        "meta_norad_cat_id": 37532,
        "meta_element_set_no": 999,
        "meta_rev_at_epoch": 84775,
        "meta_bstar": 0.00031017071,
        "meta_mean_motion_dot": 1e-05,
        "meta_mean_motion_ddot": 0,
        "tle_line1": "1 37532U 93036BNM 25336.98467014  .00001000  00000+0  31017-3 0  9994",
        "tle_line2": "2 37532  74.0505 233.7976 0015675 335.7247  40.2834 14.42382250847758"
      },
      "geometry": {
        "type": "Point",
        "coordinates": [
          -101.02893078731215,
          58.87939660219931
        ]
      }
    },
    {
      "type": "Feature",
      "properties": {
        "norad_id": 37533,
        "name": "COSMOS 2251 DEB",
        "group": "cosmos-2251-debris",
        "lat": -42.30506024827425,
        "lon": -169.01681921312553,
        "alt_km": 785.4896297134292,
        "timestamp": "2025-12-04T15:47:54.497019+00:00",
        "meta_object_name": "COSMOS 2251 DEB",
        "meta_object_id": "1993-036BNN",
        "meta_epoch": "2025-12-04T07:30:18.688320",
        "meta_mean_motion": 14.12102673,
        "meta_eccentricity": 0.01584196,
        "meta_inclination": 74.0693,
        "meta_ra_of_asc_node": 206.6584,
        "meta_arg_of_pericenter": 265.189,
        "meta_mean_anomaly": 93.1146,
        "meta_ephemeris_type": 0,
        "meta_classification_type": "U",
        "meta_norad_cat_id": 37533,
        "meta_element_set_no": 999,
        "meta_rev_at_epoch": 62802,
        "meta_bstar": 0.0025744779,
        "meta_mean_motion_dot": 5.293e-05,
        "meta_mean_motion_ddot": 0,
        "tle_line1": "1 37533U 93036BNN 25338.31271630  .00005293  00000+0  25745-2 0  9999",
        "tle_line2": "2 37533  74.0693 206.6584 0158419 265.1890  93.1146 14.12102673628021"
      },
      "geometry": {
        "type": "Point",
        "coordinates": [
          -169.01681921312553,
          -42.30506024827425
        ]
      }
    },
    {
      "type": "Feature",
      "properties": {
        "norad_id": 37535,
        "name": "COSMOS 2251 DEB",
        "group": "cosmos-2251-debris",
        "lat": -27.45568082859327,
        "lon": 80.33446911260431,
        "alt_km": 708.2340647544779,
        "timestamp": "2025-12-04T15:47:54.497030+00:00",
        "meta_object_name": "COSMOS 2251 DEB",
        "meta_object_id": "1993-036BNQ",
        "meta_epoch": "2025-12-04T01:56:02.488704",
        "meta_mean_motion": 14.58347894,
        "meta_eccentricity": 0.00282147,
        "meta_inclination": 74.0243,
        "meta_ra_of_asc_node": 89.9944,
        "meta_arg_of_pericenter": 230.0219,
        "meta_mean_anomaly": 309.4656,
        "meta_ephemeris_type": 0,
        "meta_classification_type": "U",
        "meta_norad_cat_id": 37535,
        "meta_element_set_no": 999,
        "meta_rev_at_epoch": 85198,
        "meta_bstar": 0.0018331006,
        "meta_mean_motion_dot": 8.513e-05,
        "meta_mean_motion_ddot": 0,
        "tle_line1": "1 37535U 93036BNQ 25338.08058436  .00008513  00000+0  18331-2 0  9993",
        "tle_line2": "2 37535  74.0243  89.9944 0028214 230.0219 309.4656 14.58347894851989"
      },
      "geometry": {
        "type": "Point",
        "coordinates": [
          80.33446911260431,
          -27.45568082859327
        ]
      }
    },
    {
      "type": "Feature",
      "properties": {
        "norad_id": 37537,
        "name": "COSMOS 2251 DEB",
        "group": "cosmos-2251-debris",
        "lat": 47.46456977118193,
        "lon": -61.768711504854096,
        "alt_km": 727.406358872473,
        "timestamp": "2025-12-04T15:47:54.497040+00:00",
        "meta_object_name": "COSMOS 2251 DEB",
        "meta_object_id": "1993-036BNS",
        "meta_epoch": "2025-12-03T02:49:20.436096",
        "meta_mean_motion": 14.37467313,
        "meta_eccentricity": 0.00499683,
        "meta_inclination": 74.0121,
        "meta_ra_of_asc_node": 282.86,
        "meta_arg_of_pericenter": 65.6493,
        "meta_mean_anomaly": 294.9866,
        "meta_ephemeris_type": 0,
        "meta_classification_type": "U",
        "meta_norad_cat_id": 37537,
        "meta_element_set_no": 999,
        "meta_rev_at_epoch": 84895,
        "meta_bstar": 0.00030991104,
        "meta_mean_motion_dot": 9.15e-06,
        "meta_mean_motion_ddot": 0,
        "tle_line1": "1 37537U 93036BNS 25337.11759764  .00000915  00000+0  30991-3 0  9995",
        "tle_line2": "2 37537  74.0121 282.8600 0049968  65.6493 294.9866 14.37467313848954"
      },
      "geometry": {
        "type": "Point",
        "coordinates": [
          -61.768711504854096,
          47.46456977118193
        ]
      }
    },
    {
      "type": "Feature",
      "properties": {
        "norad_id": 37546,
        "name": "COSMOS 2251 DEB",
        "group": "cosmos-2251-debris",
        "lat": -33.149652263482416,
        "lon": 103.1555707406312,
        "alt_km": 639.8794354906386,
        "timestamp": "2025-12-04T15:47:54.497050+00:00",
        "meta_object_name": "COSMOS 2251 DEB",
        "meta_object_id": "1993-036BPB",
        "meta_epoch": "2025-12-04T02:58:34.086432",
        "meta_mean_motion": 14.79925039,
        "meta_eccentricity": 0.00067024,
        "meta_inclination": 74.0209,
        "meta_ra_of_asc_node": 114.9948,
        "meta_arg_of_pericenter": 140.2441,
        "meta_mean_anomaly": 219.9228,
        "meta_ephemeris_type": 0,
        "meta_classification_type": "U",
        "meta_norad_cat_id": 37546,
        "meta_element_set_no": 999,
        "meta_rev_at_epoch": 65760,
        "meta_bstar": 0.0065338648,
        "meta_mean_motion_dot": 0.000497,
        "meta_mean_motion_ddot": 0,
        "tle_line1": "1 37546U 93036BPB 25338.12400563  .00049700  00000+0  65339-2 0  9995",
        "tle_line2": "2 37546  74.0209 114.9948 0006702 140.2441 219.9228 14.79925039657602"
      },
      "geometry": {
        "type": "Point",
        "coordinates": [
          103.1555707406312,
          -33.149652263482416
        ]
      }
    },
    {
      "type": "Feature",
      "properties": {
        "norad_id": 37959,
        "name": "COSMOS 2251 DEB",
        "group": "cosmos-2251-debris",
        "lat": 72.53593917963046,
        "lon": 138.03753027678434,
        "alt_km": 720.6383921056185,
        "timestamp": "2025-12-04T15:47:54.497061+00:00",
        "meta_object_name": "COSMOS 2251 DEB",
        "meta_object_id": "1993-036BPJ",
        "meta_epoch": "2025-12-03T06:37:43.731840",
        "meta_mean_motion": 14.58029421,
        "meta_eccentricity": 0.0058457,
        "meta_inclination": 74.0113,
        "meta_ra_of_asc_node": 74.9761,
        "meta_arg_of_pericenter": 219.613,
        "meta_mean_anomaly": 172.3716,
        "meta_ephemeris_type": 0,
        "meta_classification_type": "U",
        "meta_norad_cat_id": 37959,
        "meta_element_set_no": 999,
        "meta_rev_at_epoch": 79989,
        "meta_bstar": 0.0012228,
        "meta_mean_motion_dot": 5.729e-05,
        "meta_mean_motion_ddot": 0,
        "tle_line1": "1 37959U 93036BPJ 25337.27620060  .00005729  00000+0  12228-2 0  9996",
        "tle_line2": "2 37959  74.0113  74.9761 0058457 219.6130 172.3716 14.58029421799891"
      },
      "geometry": {
        "type": "Point",
        "coordinates": [
          138.03753027678434,
          72.53593917963046
        ]
      }
    }
  ]
}